OBJECT_NAME,OBJECT_ID,EPOCH,MEAN_MOTION,ECCENTRICITY,INCLINATION,RA_OF_ASC_NODE,ARG_OF_PERICENTER,MEAN_ANOMALY,EPHEMERIS_TYPE,CLASSIFICATION_TYPE,NORAD_CAT_ID,ELEMENT_SET_NO,REV_AT_EPOCH,BSTAR,MEAN_MOTION_DOT,MEAN_MOTION_DDOT
HORUS 1,2023-025A,2026-06-16T21:21:47.135232,15.23259912,.0001317,97.3464,242.4924,149.1184,211.0131,0,U,55690,999,18400,.20682E-3,.4831E-4,0
HORUS 2,2023-032A,2026-06-16T20:38:32.753184,15.23424093,.0002259,97.3536,243.2674,105.8752,254.2734,0,U,55844,999,18143,.19835E-3,.4653E-4,0
GLOBAL-19,2023-041B,2026-06-15T09:50:42.386784,15.37989803,.00091226,41.9998,212.2489,350.7083,9.3586,0,U,55982,999,18165,.25105828E-3,.935E-4,0
BRO-9,2023-054H,2026-06-16T00:21:19.281600,16.05297283,.00081102,97.2917,85.4611,166.8478,193.3017,0,U,56185,999,17890,.11792934E-2,.813769E-2,.34119365E-3
ION SCV-010,2023-054Q,2026-06-16T18:23:52.056672,15.26193774,.0012135,97.3782,57.2735,198.6622,161.4173,0,U,56192,999,17613,.14911E-3,.379E-4,0
TELEOS-2,2023-057C,2026-06-16T21:20:52.801728,14.96411168,.0000191,9.9867,206.3373,206.9468,153.0736,0,U,56310,999,17275,-.23305E-7,.687E-5,0
SNIPE 4,2023-072B,2026-06-16T19:47:32.949888,15.42339650,.0004432,97.5244,13.8181,340.0125,20.0947,0,U,56744,999,17005,.40956E-3,.17589E-3,0
SNIPE 2,2023-072C,2026-06-16T20:50:44.416032,15.46836348,.0004206,97.5239,16.9050,15.4504,344.6873,0,U,56745,999,17019,.44092E-3,.22079E-3,0
2023-072G,2023-072G,2026-06-16T20:52:30.501408,15.50558835,.0002826,97.4898,15.7091,10.2193,349.9115,0,U,56749,999,17041,.48044E-3,.27422E-3,0
GEISAT PRECURSOR,2023-084C,2026-06-16T19:51:49.703040,15.34646689,.000498,97.6227,308.7683,359.2552,0.8682,0,U,56934,999,16747,.18377E-3,.6087E-4,0
BLACKJACK ACES-3,2023-084U,2026-06-16T20:10:31.910304,15.18468180,.0002597,97.6216,303.0284,38.5549,321.5869,0,U,56950,999,16711,.21986E-3,.4461E-4,0
BLACKJACK ACES-2,2023-084Z,2026-06-16T20:19:19.994880,15.18541376,.0001038,97.6213,303.1193,73.9481,286.1866,0,U,56955,999,16712,.27925E-3,.5697E-4,0
BLACKJACK ACES-1,2023-084AA,2026-06-16T15:17:18.248928,15.18599841,.0001282,97.6203,302.6820,103.8562,256.2814,0,U,56956,999,11681,.27863E-3,.5694E-4,0
ION SCV-011,2023-084AB,2026-06-16T14:35:43.632096,15.28841362,.0008049,98.1375,354.8335,47.4517,312.7399,0,U,56957,999,16572,.15485E-3,.4255E-4,0
GHOST-3,2023-084AC,2026-06-16T09:18:20.305728,15.47857536,.00055132,97.6215,315.9163,297.3166,62.7522,0,U,56958,999,16789,.28031798E-3,.14494E-3,0
TOMORROW-R2,2023-084AG,2026-06-16T10:08:25.989792,16.07762760,.00083694,97.6058,331.5493,243.9184,116.1237,0,U,56962,999,16893,.61511694E-3,.496158E-2,.12303832E-3
AFR-1,2023-084AJ,2026-06-16T20:08:57.098400,15.28552818,.0009979,97.6277,304.5216,348.1892,11.9112,0,U,56964,999,16717,.13724E-3,.3737E-4,0
METEOR-M2 3,2023-091A,2026-06-16T21:18:15.957216,14.24046779,.0004341,98.6090,222.8721,156.1892,203.9489,0,U,57166,999,15447,.21293E-4,.6E-7,0
UMKA 1 (RS40S),2023-091G,2026-06-16T19:56:15.461664,15.20815751,.0014236,97.5049,226.5292,118.7578,241.5089,0,U,57172,999,16395,.24523E-3,.5352E-4,0
2023-091H,2023-091H,2026-06-16T20:32:09.843936,15.28630930,.0011265,97.5048,231.0449,113.9814,246.2607,0,U,57173,999,16425,.35784E-3,.9909E-4,0
2023-091J,2023-091J,2026-06-16T20:35:23.862048,15.13925200,.0014287,97.5054,220.9592,143.9894,216.2303,0,U,57174,999,16358,.16405E-3,.2912E-4,0
CUBEBEL 2 (EU11S),2023-091K,2026-06-16T20:33:34.644672,15.29145153,.0011274,97.5051,231.0704,115.6652,244.5753,0,U,57175,999,16425,.39842E-3,.11219E-3,0
SITRO-AIS 5 (KATYS),2023-091L,2026-06-16T19:23:56.026176,15.29450293,.0012773,97.5061,231.7040,104.5585,255.7072,0,U,57176,999,16428,.36312E-3,.10319E-3,0
ZORKIY-2M 1,2023-091M,2026-06-16T19:36:41.378976,15.20900445,.0014788,97.5090,226.7835,116.3293,243.9463,0,U,57177,999,16394,.25951E-3,.5684E-4,0
CUBESX-HSE 3 (RS42S),2023-091N,2026-06-16T20:19:48.927648,15.31208920,.0012048,97.5092,233.4299,95.9037,264.3577,0,U,57178,999,16437,.37918E-3,.11381E-3,0
MONITOR-3 (RS58S),2023-091Q,2026-06-16T19:19:41.265408,15.27835844,.00131,97.5083,231.2485,101.9331,258.3377,0,U,57180,999,16423,.32728E-3,.8843E-4,0
MONITOR-4 (RS57S),2023-091S,2026-06-16T20:23:52.040832,15.27922273,.0013116,97.5076,231.2648,102.2860,257.9849,0,U,57182,999,16424,.34582E-3,.9374E-4,0
MONITOR-2 (RS39S),2023-091U,2026-06-16T20:26:13.111296,15.18908087,.0012735,97.5072,226.1366,112.0645,248.1943,0,U,57184,999,16390,.21008E-3,.4324E-4,0
SVYATOBOR 1 (RS60S),2023-091X,2026-06-16T20:42:18.174240,15.26611365,.0010883,97.5089,231.6779,95.3583,264.8898,0,U,57187,999,16426,.30584E-3,.7949E-4,0
HORS 1,2023-091Y,2026-06-16T20:21:30.750048,15.26718045,.0010348,97.5067,231.4258,95.4690,264.7729,0,U,57188,999,16426,.30624E-3,.7984E-4,0
