HORUS 1                 
1 55690U 23025A   26167.89012888  .00004831  00000+0  20682-3 0  9999
2 55690  97.3464 242.4924 0001317 149.1184 211.0131 15.23259912184008
HORUS 2                 
1 55844U 23032A   26167.86010131  .00004653  00000+0  19835-3 0  9994
2 55844  97.3536 243.2674 0002259 105.8752 254.2734 15.23424093181432
GLOBAL-19               
1 55982U 23041B   26166.41021281  .00009350  00000+0  25106-3 0  9992
2 55982  41.9998 212.2489 0009122 350.7083   9.3586 15.37989803181654
BRO-9                   
1 56185U 23054H   26167.01480650  .00813769  34119-3  11793-2 0  9993
2 56185  97.2917  85.4611 0008110 166.8478 193.3017 16.05297283178909
ION SCV-010             
1 56192U 23054Q   26167.76657473  .00003790  00000+0  14911-3 0  9991
2 56192  97.3782  57.2735 0012135 198.6622 161.4173 15.26193774176132
TELEOS-2                
1 56310U 23057C   26167.88950002  .00000687  00000+0 -23305-7 0  9997
2 56310   9.9867 206.3373 0000191 206.9468 153.0736 14.96411168172754
SNIPE 4                 
1 56744U 23072B   26167.82468692  .00017589  00000+0  40956-3 0  9993
2 56744  97.5244  13.8181 0004432 340.0125  20.0947 15.42339650170052
SNIPE 2                 
1 56745U 23072C   26167.86856963  .00022079  00000+0  44092-3 0  9995
2 56745  97.5239  16.9050 0004206  15.4504 344.6873 15.46836348170197
2023-072G               
1 56749U 23072G   26167.86979747  .00027422  00000+0  48044-3 0  9993
2 56749  97.4898  15.7091 0002826  10.2193 349.9115 15.50558835170415
GEISAT PRECURSOR        
1 56934U 23084C   26167.82765860  .00006087  00000+0  18377-3 0  9997
2 56934  97.6227 308.7683 0004980 359.2552   0.8682 15.34646689167470
BLACKJACK ACES-3        
1 56950U 23084U   26167.84064711  .00004461  00000+0  21986-3 0  9998
2 56950  97.6216 303.0284 0002597  38.5549 321.5869 15.18468180167117
BLACKJACK ACES-2        
1 56955U 23084Z   26167.84675920  .00005697  00000+0  27925-3 0  9994
2 56955  97.6213 303.1193 0001038  73.9481 286.1866 15.18541376167129
BLACKJACK ACES-1        
1 56956U 23084AA  26167.63701677  .00005694  00000+0  27863-3 0  9999
2 56956  97.6203 302.6820 0001282 103.8562 256.2814 15.18599841116815
ION SCV-011             
1 56957U 23084AB  26167.60814389  .00004255  00000+0  15485-3 0  9991
2 56957  98.1375 354.8335 0008049  47.4517 312.7399 15.28841362165722
GHOST-3                 
1 56958U 23084AC  26167.38773502  .00014494  00000+0  28032-3 0  9996
2 56958  97.6215 315.9163 0005513 297.3166  62.7522 15.47857536167897
TOMORROW-R2             
1 56962U 23084AG  26167.42252303  .00496158  12304-3  61512-3 0  9992
2 56962  97.6058 331.5493 0008369 243.9184 116.1237 16.07762760168930
AFR-1                   
1 56964U 23084AJ  26167.83954975  .00003737  00000+0  13724-3 0  9998
2 56964  97.6277 304.5216 0009979 348.1892  11.9112 15.28552818167172
METEOR-M2 3             
1 57166U 23091A   26167.88768469  .00000006  00000+0  21293-4 0  9994
2 57166  98.6090 222.8721 0004341 156.1892 203.9489 14.24046779154477
UMKA 1 (RS40S)          
1 57172U 23091G   26167.83073451  .00005352  00000+0  24523-3 0  9993
2 57172  97.5049 226.5292 0014236 118.7578 241.5089 15.20815751163957
2023-091H               
1 57173U 23091H   26167.85566949  .00009909  00000+0  35784-3 0  9998
2 57173  97.5048 231.0449 0011265 113.9814 246.2607 15.28630930164255
2023-091J               
1 57174U 23091J   26167.85791507  .00002912  00000+0  16405-3 0  9995
2 57174  97.5054 220.9592 0014287 143.9894 216.2303 15.13925200163583
CUBEBEL 2 (EU11S)       
1 57175U 23091K   26167.85665098  .00011219  00000+0  39842-3 0  9991
2 57175  97.5051 231.0704 0011274 115.6652 244.5753 15.29145153164256
SITRO-AIS 5 (KATYS)     
1 57176U 23091L   26167.80828734  .00010319  00000+0  36312-3 0  9994
2 57176  97.5061 231.7040 0012773 104.5585 255.7072 15.29450293164280
ZORKIY-2M 1             
1 57177U 23091M   26167.81714559  .00005684  00000+0  25951-3 0  9991
2 57177  97.5090 226.7835 0014788 116.3293 243.9463 15.20900445163949
CUBESX-HSE 3 (RS42S)    
1 57178U 23091N   26167.84709407  .00011381  00000+0  37918-3 0  9998
2 57178  97.5092 233.4299 0012048  95.9037 264.3577 15.31208920164378
MONITOR-3 (RS58S)       
1 57180U 23091Q   26167.80533872  .00008843  00000+0  32728-3 0  9991
2 57180  97.5083 231.2485 0013100 101.9331 258.3377 15.27835844164231
MONITOR-4 (RS57S)       
1 57182U 23091S   26167.84990788  .00009374  00000+0  34582-3 0  9990
2 57182  97.5076 231.2648 0013116 102.2860 257.9849 15.27922273164247
MONITOR-2 (RS39S)       
1 57184U 23091U   26167.85154064  .00004324  00000+0  21008-3 0  9991
2 57184  97.5072 226.1366 0012735 112.0645 248.1943 15.18908087163907
SVYATOBOR 1 (RS60S)     
1 57187U 23091X   26167.86271035  .00007949  00000+0  30584-3 0  9998
2 57187  97.5089 231.6779 0010883  95.3583 264.8898 15.26611365164266
HORS 1                  
1 57188U 23091Y   26167.84827257  .00007984  00000+0  30624-3 0  9994
2 57188  97.5067 231.4258 0010348  95.4690 264.7729 15.26718045164264
